
# Worst residual: 8.23 km
# MJD 60817.000000 (2025 May 22  0:00)
2011-037A = Spektr-R = NORAD 37755
1 37755U 11037A   25142.49919926  .00000000  00000-0  00000-0 0 25484
2 37755 083.9111 323.3734 6178272 333.1397 115.3956 00.10378967    00

# Worst residual: 4.87 km
# MJD 60818.000000 (2025 May 23  0:00)
2011-037A = Spektr-R = NORAD 37755
1 37755U 11037A   25143.49919926  .00000000  00000-0  00000-0 0 25485
2 37755 083.9549 323.3142 6173167 333.1905 152.7621 00.10382331    05

# Worst residual: 8.39 km
# MJD 60819.000000 (2025 May 24  0:00)
2011-037A = Spektr-R = NORAD 37755
1 37755U 11037A   25144.49919926  .00000000  00000-0  00000-0 0 25486
2 37755 083.9764 323.2825 6164446 333.3327 189.8195 00.10376059    08

# Worst residual: 14.06 km
# MJD 60820.000000 (2025 May 25  0:00)
2011-037A = Spektr-R = NORAD 37755
1 37755U 11037A   25145.49919926  .00000000  00000-0  00000-0 0 25487
2 37755 083.8870 323.2935 6154427 333.4872 226.7651 00.10374498    04

# Worst residual: 12.87 km
# MJD 60821.000000 (2025 May 26  0:00)
2011-037A = Spektr-R = NORAD 37755
1 37755U 11037A   25146.49919926  .00000000  00000-0  00000-0 0 25488
2 37755 083.7027 323.2950 6144476 333.6075 263.7985 00.10376517    09

# Worst residual: 7.30 km
# MJD 60822.000000 (2025 May 27  0:00)
2011-037A = Spektr-R = NORAD 37755
1 37755U 11037A   25147.49919926  .00000000  00000-0  00000-0 0 25489
2 37755 083.5772 323.2555 6134395 333.6081 301.0421 00.10362109    04

# Worst residual: 56.05 km
# MJD 60823.000000 (2025 May 28  0:00)
2011-037A = Spektr-R = NORAD 37755
1 37755U 11037A   25148.49919926  .00000000  00000-0  00000-0 0 25480
2 37755 083.6588 323.3070 6141931 333.3810 338.4053 00.10271879    02

# Worst residual: 66.46 km
# MJD 60824.000000 (2025 May 29  0:00)
2011-037A = Spektr-R = NORAD 37755
1 37755U 11037A   25149.49919926  .00000000  00000-0  00000-0 0 25481
2 37755 083.4978 323.4063 6166105 333.6205 015.0006 00.10164750    02

# Worst residual: 24.22 km
# MJD 60825.000000 (2025 May 30  0:00)
2011-037A = Spektr-R = NORAD 37755
1 37755U 11037A   25150.49919926  .00000000  00000-0  00000-0 0 25483
2 37755 083.4410 323.2799 6137602 333.7683 051.8630 00.10219099    06

# Worst residual: 26.12 km
# MJD 60826.000000 (2025 May 31  0:00)
2011-037A = Spektr-R = NORAD 37755
1 37755U 11037A   25151.49919926  .00000000  00000-0  00000-0 0 25484
2 37755 083.4292 323.2740 6107002 333.8913 088.9370 00.10234013    03

# Worst residual: 35.43 km
# MJD 60827.000000 (2025 Jun  1  0:00)
2011-037A = Spektr-R = NORAD 37755
1 37755U 11037A   25152.49919926  .00000000  00000-0  00000-0 0 25485
2 37755 083.3834 323.3103 6044374 334.2570 125.6631 00.10180338    03

# Worst residual: 36.95 km
# MJD 60828.000000 (2025 Jun  2  0:00)
2011-037A = Spektr-R = NORAD 37755
1 37755U 11037A   25153.49919926  .00000000  00000-0  00000-0 0 25486
2 37755 083.1398 323.4813 5946941 334.5834 161.9811 00.10086882    03

# Worst residual: 24.53 km
# MJD 60829.000000 (2025 Jun  3  0:00)
2011-037A = Spektr-R = NORAD 37755
1 37755U 11037A   25154.49919926  .00000000  00000-0  00000-0 0 25487
2 37755 082.7152 323.6737 5872176 334.6059 198.2001 00.10016774    08

# Worst residual: 16.60 km
# MJD 60830.000000 (2025 Jun  4  0:00)
2011-037A = Spektr-R = NORAD 37755
1 37755U 11037A   25155.49919926  .00000000  00000-0  00000-0 0 25488
2 37755 082.3868 323.7401 5840595 334.5392 234.2928 00.09982376    03

# Worst residual: 10.76 km
# MJD 60831.000000 (2025 Jun  5  0:00)
2011-037A = Spektr-R = NORAD 37755
1 37755U 11037A   25156.49919926  .00000000  00000-0  00000-0 0 25489
2 37755 082.2112 323.7225 5829722 334.5825 270.0893 00.09973617    05

# Worst residual: 24.63 km
# MJD 60832.000000 (2025 Jun  6  0:00)
2011-037A = Spektr-R = NORAD 37755
1 37755U 11037A   25157.49919926  .00000000  00000-0  00000-0 0 25480
2 37755 082.1222 323.6781 5815762 334.7950 305.5685 00.10006381    02

# Worst residual: 89.96 km
# MJD 60833.000000 (2025 Jun  7  0:00)
2011-037A = Spektr-R = NORAD 37755
1 37755U 11037A   25158.49919926  .00000000  00000-0  00000-0 0 25481
2 37755 082.0820 323.6680 5758494 334.8597 341.1615 00.10136238    03

# Worst residual: 81.84 km
# MJD 60834.000000 (2025 Jun  8  0:00)
2011-037A = Spektr-R = NORAD 37755
1 37755U 11037A   25159.49919926  .00000000  00000-0  00000-0 0 25482
2 37755 082.0162 323.6425 5747490 333.9319 017.7555 00.10160362    09

# Worst residual: 40.04 km
# MJD 60835.000000 (2025 Jun  9  0:00)
2011-037A = Spektr-R = NORAD 37755
1 37755U 11037A   25160.49919926  .00000000  00000-0  00000-0 0 25484
2 37755 082.0228 323.5287 5806845 334.0251 053.1370 00.10022963    07

# Worst residual: 20.11 km
# MJD 60836.000000 (2025 Jun 10  0:00)
2011-037A = Spektr-R = NORAD 37755
1 37755U 11037A   25161.49919926  .00000000  00000-0  00000-0 0 25485
2 37755 082.0604 323.4284 5827069 334.4303 088.1108 00.09953408    06

# Worst residual: 11.94 km
# MJD 60837.000000 (2025 Jun 11  0:00)
2011-037A = Spektr-R = NORAD 37755
1 37755U 11037A   25162.49919926  .00000000  00000-0  00000-0 0 25486
2 37755 082.0769 323.3890 5833440 334.7459 123.1173 00.09924678    04

# Worst residual: 7.99 km
# MJD 60838.000000 (2025 Jun 12  0:00)
2011-037A = Spektr-R = NORAD 37755
1 37755U 11037A   25163.49919926  .00000000  00000-0  00000-0 0 25487
2 37755 082.0397 323.3981 5836041 334.9666 158.2778 00.09917477    03

# Worst residual: 4.19 km
# MJD 60839.000000 (2025 Jun 13  0:00)
2011-037A = Spektr-R = NORAD 37755
1 37755U 11037A   25164.49919926  .00000000  00000-0  00000-0 0 25488
2 37755 081.9674 323.4133 5836498 335.1088 193.6749 00.09919024    07

# Worst residual: 5.31 km
# MJD 60840.000000 (2025 Jun 14  0:00)
2011-037A = Spektr-R = NORAD 37755
1 37755U 11037A   25165.49919926  .00000000  00000-0  00000-0 0 25489
2 37755 081.9260 323.4026 5834124 335.1647 229.3442 00.09916084    04

# Worst residual: 18.12 km
# MJD 60841.000000 (2025 Jun 15  0:00)
2011-037A = Spektr-R = NORAD 37755
1 37755U 11037A   25166.49919926  .00000000  00000-0  00000-0 0 25480
2 37755 081.9662 323.3788 5830237 335.0870 265.2667 00.09892097    07

# Worst residual: 38.10 km
# MJD 60842.000000 (2025 Jun 16  0:00)
2011-037A = Spektr-R = NORAD 37755
1 37755U 11037A   25167.49919926  .00000000  00000-0  00000-0 0 25481
2 37755 082.0548 323.3778 5837469 334.8144 301.3671 00.09816573    08

# Worst residual: 118.01 km
# MJD 60843.000000 (2025 Jun 17  0:00)
2011-037A = Spektr-R = NORAD 37755
1 37755U 11037A   25168.49919926  .00000000  00000-0  00000-0 0 25482
2 37755 082.1041 323.3852 5904036 334.6624 337.1611 00.09613032    02

# Worst residual: 109.79 km
# MJD 60844.000000 (2025 Jun 18  0:00)
2011-037A = Spektr-R = NORAD 37755
1 37755U 11037A   25169.49919926  .00000000  00000-0  00000-0 0 25483
2 37755 082.1638 323.3354 5906044 335.8946 011.5115 00.09653097    09
